[
    {
        "Altitude(m)": 622200.1203198107,
        "Argument of Periapsis(deg)": 0.0,
        "Eccentricity": 0.0,
        "Inclination(deg)": 60.0,
        "Latitude(deg)": -52.16257443560301,
        "Longitude(deg)": -162.6393739729836,
        "Mean Anomaly(deg)": -65.45449999999992,
        "RAAN(deg)": 345.0,
        "Satellite Name": "Test1 1536",
        "Satellite Number": 1536,
        "Semi-Major Axis(m)": 6980739.136638005,
        "Time(s)": 0
    },
    {
        "Altitude(m)": 622058.2885902926,
        "Argument of Periapsis(deg)": 0.00010418945913296404,
        "Eccentricity": 0.0,
        "Inclination(deg)": 60.0,
        "Latitude(deg)": -51.79932541163004,
        "Longitude(deg)": -161.87131382198768,
        "Mean Anomaly(deg)": -64.83439385453808,
        "RAAN(deg)": 344.99957995086027,
        "Satellite Name": "Test1 1536",
        "Satellite Number": 1536,
        "Semi-Major Axis(m)": 6980739.136638005,
        "Time(s)": 10
    },
    {
        "Altitude(m)": 621913.7235644434,
        "Argument of Periapsis(deg)": 0.0002083789182659281,
        "Eccentricity": 0.0,
        "Inclination(deg)": 60.0,
        "Latitude(deg)": -51.43056478239113,
        "Longitude(deg)": -161.11623244530867,
        "Mean Anomaly(deg)": -64.21428770907633,
        "RAAN(deg)": 344.99915990172053,
        "Satellite Name": "Test1 1536",
        "Satellite Number": 1536,
        "Semi-Major Axis(m)": 6980739.136638005,
        "Time(s)": 20
    },
    {
        "Altitude(m)": 621766.4816813874,
        "Argument of Periapsis(deg)": 0.00031256837739889213,
        "Eccentricity": 0.0,
        "Inclination(deg)": 60.0,
        "Latitude(deg)": -51.05644966899888,
        "Longitude(deg)": -160.37394014842138,
        "Mean Anomaly(deg)": -63.59418156361443,
        "RAAN(deg)": 344.9987398525808,
        "Satellite Name": "Test1 1536",
        "Satellite Number": 1536,
        "Semi-Major Axis(m)": 6980739.136638005,
        "Time(s)": 30
    },
    {
        "Altitude(m)": 621616.6203966578,
        "Argument of Periapsis(deg)": 0.0004167578365318562,
        "Eccentricity": 0.0,
        "Inclination(deg)": 60.0,
        "Latitude(deg)": -50.67713350206262,
        "Longitude(deg)": -159.64423947110092,
        "Mean Anomaly(deg)": -62.974075418152665,
        "RAAN(deg)": 344.99831980344106,
        "Satellite Name": "Test1 1536",
        "Satellite Number": 1536,
        "Semi-Major Axis(m)": 6980739.136638005,
        "Time(s)": 40
    },
    {
        "Altitude(m)": 621464.198157599,
        "Argument of Periapsis(deg)": 0.0005209472956648203,
        "Eccentricity": 0.0,
        "Inclination(deg)": 60.0,
        "Latitude(deg)": -50.29276599467806,
        "Longitude(deg)": -158.92692723726847,
        "Mean Anomaly(deg)": -62.353969272690826,
        "RAAN(deg)": 344.9978997543013,
        "Satellite Name": "Test1 1536",
        "Satellite Number": 1536,
        "Semi-Major Axis(m)": 6980739.136638005,
        "Time(s)": 50
    },
    {
        "Altitude(m)": 621309.2743783053,
        "Argument of Periapsis(deg)": 0.0006251367547977843,
        "Eccentricity": 0.0,
        "Inclination(deg)": 60.0,
        "Latitude(deg)": -49.90349312997534,
        "Longitude(deg)": -158.2217950226185,
        "Mean Anomaly(deg)": -61.73386312722907,
        "RAAN(deg)": 344.99747970516154,
        "Satellite Name": "Test1 1536",
        "Satellite Number": 1536,
        "Semi-Major Axis(m)": 6980739.136638005,
        "Time(s)": 60
    },
    {
        "Altitude(m)": 621151.9094141558,
        "Argument of Periapsis(deg)": 0.0007293262139307483,
        "Eccentricity": 0.0,
        "Inclination(deg)": 60.0,
        "Latitude(deg)": -49.509457161817956,
        "Longitude(deg)": -157.528629554303,
        "Mean Anomaly(deg)": -61.11375698176716,
        "RAAN(deg)": 344.99705965602186,
        "Satellite Name": "Test1 1536",
        "Satellite Number": 1536,
        "Semi-Major Axis(m)": 6980739.136638005,
        "Time(s)": 70
    },
    {
        "Altitude(m)": 620992.1645358981,
        "Argument of Periapsis(deg)": 0.0008335156730637124,
        "Eccentricity": 0.0,
        "Inclination(deg)": 60.0,
        "Latitude(deg)": -49.110796627318784,
        "Longitude(deg)": -156.8472145573727,
        "Mean Anomaly(deg)": -60.493650836305406,
        "RAAN(deg)": 344.99663960688207,
        "Satellite Name": "Test1 1536",
        "Satellite Number": 1536,
        "Semi-Major Axis(m)": 6980739.136638005,
        "Time(s)": 80
    },
    {
        "Altitude(m)": 620830.1019033389,
        "Argument of Periapsis(deg)": 0.0009377051321966765,
        "Eccentricity": 0.0,
        "Inclination(deg)": 60.0,
        "Latitude(deg)": -48.707646369917335,
        "Longitude(deg)": -156.17733102437845,
        "Mean Anomaly(deg)": -59.873544690843566,
        "RAAN(deg)": 344.99621955774234,
        "Satellite Name": "Test1 1536",
        "Satellite Number": 1536,
        "Semi-Major Axis(m)": 6980739.136638005,
        "Time(s)": 90
    },
    {
        "Altitude(m)": 620665.7845386077,
        "Argument of Periapsis(deg)": 0.0010418945913296407,
        "Eccentricity": 0.0,
        "Inclination(deg)": 60.0,
        "Latitude(deg)": -48.3001375718335,
        "Longitude(deg)": -155.5187574234295,
        "Mean Anomaly(deg)": -59.253438545381705,
        "RAAN(deg)": 344.9957995086026,
        "Satellite Name": "Test1 1536",
        "Satellite Number": 1536,
        "Semi-Major Axis(m)": 6980739.136638005,
        "Time(s)": 100
    },
    {
        "Altitude(m)": 620499.2762990729,
        "Argument of Periapsis(deg)": 0.0011460840504626045,
        "Eccentricity": 0.0,
        "Inclination(deg)": 60.0,
        "Latitude(deg)": -47.888397794786925,
        "Longitude(deg)": -154.87127136019475,
        "Mean Anomaly(deg)": -58.6333323999199,
        "RAAN(deg)": 344.99537945946287,
        "Satellite Name": "Test1 1536",
        "Satellite Number": 1536,
        "Semi-Major Axis(m)": 6980739.136638005,
        "Time(s)": 110
    },
    {
        "Altitude(m)": 620330.6418497976,
        "Argument of Periapsis(deg)": 0.0012502735095955685,
        "Eccentricity": 0.0,
        "Inclination(deg)": 60.0,
        "Latitude(deg)": -47.47255102795674,
        "Longitude(deg)": -154.23464967085678,
        "Mean Anomaly(deg)": -58.01322625445805,
        "RAAN(deg)": 344.99495941032313,
        "Satellite Name": "Test1 1536",
        "Satellite Number": 1536,
        "Semi-Major Axis(m)": 6980739.136638005,
        "Time(s)": 120
    },
    {
        "Altitude(m)": 620159.9466357238,
        "Argument of Periapsis(deg)": 0.0013544629687285324,
        "Eccentricity": 0.0,
        "Inclination(deg)": 60.0,
        "Latitude(deg)": -47.05271774222396,
        "Longitude(deg)": -153.60866846173994,
        "Mean Anomaly(deg)": -57.3931201089962,
        "RAAN(deg)": 344.99453936118334,
        "Satellite Name": "Test1 1536",
        "Satellite Number": 1536,
        "Semi-Major Axis(m)": 6980739.136638005,
        "Time(s)": 130
    },
    {
        "Altitude(m)": 619987.2568534072,
        "Argument of Periapsis(deg)": 0.0014586524278614966,
        "Eccentricity": 0.0,
        "Inclination(deg)": 60.0,
        "Latitude(deg)": -46.629014949811825,
        "Longitude(deg)": -152.99310461138177,
        "Mean Anomaly(deg)": -56.773013963534346,
        "RAAN(deg)": 344.9941193120436,
        "Satellite Name": "Test1 1536",
        "Satellite Number": 1536,
        "Semi-Major Axis(m)": 6980739.136638005,
        "Time(s)": 140
    },
    {
        "Altitude(m)": 619812.6394224757,
        "Argument of Periapsis(deg)": 0.0015628418869944607,
        "Eccentricity": 0.0,
        "Inclination(deg)": 60.0,
        "Latitude(deg)": -46.20155626851825,
        "Longitude(deg)": -152.38773571220875,
        "Mean Anomaly(deg)": -56.15290781807254,
        "RAAN(deg)": 344.99369926290393,
        "Satellite Name": "Test1 1536",
        "Satellite Number": 1536,
        "Semi-Major Axis(m)": 6980739.136638005,
        "Time(s)": 150
    },
    {
        "Altitude(m)": 619636.1619566946,
        "Argument of Periapsis(deg)": 0.0016670313461274247,
        "Eccentricity": 0.0,
        "Inclination(deg)": 60.0,
        "Latitude(deg)": -45.770451989796264,
        "Longitude(deg)": -151.79233996757762,
        "Mean Anomaly(deg)": -55.53280167261069,
        "RAAN(deg)": 344.99327921376414,
        "Satellite Name": "Test1 1536",
        "Satellite Number": 1536,
        "Semi-Major Axis(m)": 6980739.136638005,
        "Time(s)": 160
    },
    {
        "Altitude(m)": 619457.8927347561,
        "Argument of Periapsis(deg)": 0.0017712208052603888,
        "Eccentricity": 0.0,
        "Inclination(deg)": 60.0,
        "Latitude(deg)": -45.33580915000255,
        "Longitude(deg)": -151.20669755990383,
        "Mean Anomaly(deg)": -54.912695527148834,
        "RAAN(deg)": 344.9928591646244,
        "Satellite Name": "Test1 1536",
        "Satellite Number": 1536,
        "Semi-Major Axis(m)": 6980739.136638005,
        "Time(s)": 170
    },
    {
        "Altitude(m)": 619277.9006707055,
        "Argument of Periapsis(deg)": 0.001875410264393353,
        "Eccentricity": 0.0,
        "Inclination(deg)": 60.0,
        "Latitude(deg)": -44.89773160420411,
        "Longitude(deg)": -150.63059046690617,
        "Mean Anomaly(deg)": -54.29258938168699,
        "RAAN(deg)": 344.9924391154847,
        "Satellite Name": "Test1 1536",
        "Satellite Number": 1536,
        "Semi-Major Axis(m)": 6980739.136638005,
        "Time(s)": 180
    },
    {
        "Altitude(m)": 619096.2552841255,
        "Argument of Periapsis(deg)": 0.0019795997235263173,
        "Eccentricity": 0.0,
        "Inclination(deg)": 60.0,
        "Latitude(deg)": -44.456320101984005,
        "Longitude(deg)": -150.063802241541,
        "Mean Anomaly(deg)": -53.67248323622518,
        "RAAN(deg)": 344.99201906634494,
        "Satellite Name": "Test1 1536",
        "Satellite Number": 1536,
        "Semi-Major Axis(m)": 6980739.136638005,
        "Time(s)": 190
    }
]